
stk.v.11.0
BEGIN Ephemeris
NumberOfEphemerisPoints 1756
ScenarioEpoch 01 Jan 1970 00:00:00.000000
CentralBody Sun
CoordinateSystem ICRF
DistanceUnit Meters
EphemerisTimePosVel
1.8839519880000000e+09  2.1597256962695000e+10 -9.6762604677253006e+10 -4.4907898496207001e+10  3.4089067283999997e+04  7.0108277459999999e+03  9.9807530299999996e+02
1.8848159880000000e+09  4.9851156548593002e+10 -8.7091713655309998e+10 -4.2343672403922997e+10  3.0895780740999999e+04  1.5229198147999999e+04  4.8982286580000000e+03
1.8856799880000000e+09  7.4307150785419006e+10 -7.0784703645431000e+10 -3.6553027317568001e+10  2.5353878875999999e+04  2.2276360206000001e+04  8.4199457270000003e+03
1.8865439880000000e+09  9.3104916984009003e+10 -4.9087741750905998e+10 -2.7979021995419998e+10  1.7880029896000000e+04  2.7627669359000000e+04  1.1300784699000000e+04
1.8874079880000000e+09  1.0480643535802499e+11 -2.3650064746522999e+10 -1.7272806627612999e+10  9.0297585720000006e+03  3.0879899909000000e+04  1.3324155591999999e+04
1.8882719880000000e+09  1.0850102135776300e+11  3.5933468330609999e+09 -5.2474734755760002e+09 -5.3832872499999996e+02  3.1778850973000001e+04  1.4334004778000000e+04
1.8891359880000000e+09  1.0387644685795200e+11  3.0559802869195999e+10  7.1795562034340000e+09 -1.0105155622000000e+04  3.0239451481000000e+04  1.4246558284999999e+04
1.8899999880000000e+09  9.1250589169927994e+10  5.5170506880093002e+10  1.9052748638374001e+10 -1.8939742773000002e+04  2.6356756954000000e+04  1.3058342898999999e+04
1.8908639880000000e+09  7.1559086941546005e+10  7.5507008263761002e+10  2.9449639183591999e+10 -2.6352119965000002e+04  2.0405821297999999e+04  1.0849475759000001e+04
1.8917279880000000e+09  4.6296369159413002e+10  8.9961986770201996e+10  3.7552413127811996e+10 -3.1747754776999998e+04  1.2828393727999999e+04  7.7811211480000002e+03
1.8925919880000000e+09  1.7410495314557999e+10  9.7372307241638000e+10  4.2714429978106003e+10 -3.4679209688000003e+04  4.2050463099999997e+03  4.0862156390000000e+03
1.8934559880000000e+09 -1.2843481471381001e+10  9.7121657290567993e+10  4.4515684351622002e+10 -3.4889507946999998e+04 -4.7871847209999996e+03  5.3151797000000002e+01
1.8943199880000000e+09 -4.2081885113047997e+10  8.9201053088843994e+10  4.2801318880595001e+10 -3.2341257130999998e+04 -1.3429389617000001e+04 -3.9969379690000001e+03
1.8951839880000000e+09 -6.7987864232547997e+10  7.4218498619360992e+10  3.7698342877916000e+10 -2.7226318379000000e+04 -2.1022910492999999e+04 -7.7375211310000004e+03
1.8960479880000000e+09 -8.8505571222251007e+10  5.3354119877874001e+10  2.9607733087839001e+10 -1.9952940116000002e+04 -2.6952176810000001e+04 -1.0865763188999999e+04
1.8969119880000000e+09 -1.0201344830970700e+11  2.8263450613882000e+10  1.9171872977553001e+10 -1.1110613963000000e+04 -3.0740632469000000e+04 -1.3129924438000000e+04
1.8977759880000000e+09 -1.0745880030652699e+11  9.3795364357799995e+08  7.2202983096499996e+09 -1.4165226590000000e+03 -3.2092763013000000e+04 -1.4351656564000001e+04
1.8986399880000000e+09 -1.0444049076557600e+11 -2.6462893325264999e+10 -5.3006316764329996e+09  8.3497033119999996e+03 -3.0917316784999999e+04 -1.4440576387999999e+04
1.8995039880000000e+09 -9.3233140541602005e+10 -5.1790683013612999e+10 -1.7406789180877998e+10  1.7414762538999999e+04 -2.7329916872999998e+04 -1.3399791533000000e+04
1.9003679880000000e+09 -7.4753271150087997e+10 -7.3080902477667999e+10 -2.8156187832472000e+10  2.5076079473000002e+04 -2.1636414730000000e+04 -1.1322483936000001e+04
1.9012319880000000e+09 -5.0474025045107002e+10 -8.8704356061085007e+10 -3.6722515873059998e+10  3.0755598607000000e+04 -1.4300773692000001e+04 -8.3808609240000005e+03
1.9020959880000000e+09 -2.2299436645132999e+10 -9.7485968007779007e+10 -4.2456549066179001e+10  3.4039216014999998e+04 -5.9025676869999998e+03 -4.8095241040000001e+03
1.9029599880000000e+09  7.5886444558160000e+09 -9.8784265100292007e+10 -4.4931600573846001e+10  3.4700641059000001e+04  2.9107265739999998e+03 -8.8551248099999998e+02
1.9038239880000000e+09  3.6897726249693001e+10 -9.2528984412091003e+10 -4.3971020426777000e+10  3.2710391340999999e+04  1.1472328572000000e+04  3.0929971329999998e+03
1.9046879880000000e+09  6.3393812302821999e+10 -7.9217483488102997e+10 -3.9657280676809998e+10  2.8231694071000002e+04  1.9142500886000002e+04  6.8278053520000003e+03
1.9055519880000000e+09  8.5062101029162003e+10 -5.9872814817056999e+10 -3.2323275955327999e+10  2.1605385714000000e+04  2.5350705257000001e+04  1.0040615193000000e+04
1.9064159880000000e+09  1.0025054410099200e+11 -3.5967600246997002e+10 -2.2527150086896999e+10  1.3325587197999999e+04  2.9632474262000000e+04  1.2491162732999999e+04
1.9072799880000000e+09  1.0778886819708900e+11 -9.3186065290200005e+09 -1.1012386174639999e+10  4.0073932370000002e+03  3.1660234543999999e+04  1.3993131538000000e+04
1.9081439880000000e+09  1.0707652591926601e+11  1.8042385341380001e+10  1.3447363470739999e+09 -5.6526293009999999e+03  3.1267178201999999e+04  1.4427392639000000e+04
1.9090079880000000e+09  9.8133662341679993e+10  4.4014870184582001e+10  1.3597745211649000e+10 -1.4922407799000001e+04  2.8462842954000000e+04  1.3751923607000001e+04
1.9098719880000000e+09  8.1609975720222000e+10  6.6585123922483002e+10  2.4799390550943001e+10 -2.3085594791000000e+04  2.3438509930000000e+04  1.2007479943000000e+04
1.9107359880000000e+09  5.8747802325477997e+10  8.3981203394610001e+10  3.4073728315432999e+10 -2.9495813865000000e+04  1.6560296222000001e+04  9.3179170269999995e+03
1.9115999880000000e+09  3.1298278701623001e+10  9.4816001501531006e+10  4.0685796490999001e+10 -3.3630310117000001e+04  8.3481775300000008e+03  5.8841448760000003e+03
1.9124639880000000e+09  1.3931678456980000e+09  9.8205781362487000e+10  4.4103062486973000e+10 -3.5137990703000003e+04 -5.5977817400000004e+02  1.9710734179999999e+03
1.9133279880000000e+09 -2.8620277636474998e+10  9.3851769091009995e+10  4.4042585980858002e+10 -3.3875937930000000e+04 -9.4567635599999994e+03 -2.1122856649999999e+03
1.9141919880000000e+09 -5.6368921143027000e+10  8.2074443082697998e+10  4.0498443827237999e+10 -2.9928667925999998e+04 -1.7626572896999998e+04 -6.0383031840000003e+03
1.9150559880000000e+09 -7.9650941399164993e+10  6.3794293009306000e+10  3.3745547441153000e+10 -2.3605955505000002e+04 -2.4407029895000000e+04 -9.4894117970000007e+03
1.9159199880000000e+09 -9.6621281311330002e+10  4.0458651691850998e+10  2.4318450237814999e+10 -1.5417867939000000e+04 -2.9250099200000001e+04 -1.2186734896000000e+04
1.9167839880000000e+09 -1.0594633492255000e+11  1.3920761452868999e+10  1.2966715391184000e+10 -6.0291866319999999e+03 -3.1771168957000002e+04 -1.3915145693000000e+04
1.9176479880000000e+09 -1.0691223261351199e+11 -1.3716813228718000e+10  5.9130505102699995e+08  3.8012864570000002e+03 -3.1781499425000002e+04 -1.4541708352000000e+04
1.9185119880000000e+09 -9.9476868916367996e+10 -4.0278230217324997e+10 -1.1831346019566999e+10  1.3288879602999999e+04 -2.9300520519999998e+04 -1.4025524971999999e+04
1.9193759880000000e+09 -8.4262824125694000e+10 -6.3692177705721001e+10 -2.3329790026726002e+10  2.1690389060000001e+04 -2.4547866935999999e+04 -1.2418410376000000e+04
1.9202399880000000e+09 -6.2495099909625999e+10 -8.2154974533485992e+10 -3.3014897556661999e+10  2.8363456707000001e+04 -1.7917954462999998e+04 -9.8572076699999998e+03
1.9211039880000000e+09 -3.5892866889870003e+10 -9.4265789004664993e+10 -4.0147552488778999e+10  3.2813036712000001e+04 -9.9417203229999996e+03 -6.5495124569999998e+03
1.9219679880000000e+09 -6.5275815708920002e+09 -9.9125146423348999e+10 -4.4191955287758003e+10  3.4722590398000000e+04 -1.2407685799999999e+03 -2.7550124040000001e+03
1.9228319880000000e+09  2.3339144910563000e+10 -9.6392302872673996e+10 -4.4851697621209999e+10  3.3969894133000002e+04  7.5212693499999996e+03  1.2353997480000000e+03
1.9236959880000000e+09  5.1425153774953003e+10 -8.6300775809261002e+10 -4.2087481131289001e+10  3.0628846206999999e+04  1.5686441873000000e+04  5.1209794640000000e+03
1.9245599880000000e+09  7.5593579838751999e+10 -6.9633986501264999e+10 -3.6116648429172997e+10  2.4959289432000001e+04  2.2646787711000001e+04  8.6117143649999998e+03
1.9254239880000000e+09  9.4005443016035004e+10 -4.7664641169549004e+10 -2.7395558304939999e+10  1.7386822002000001e+04  2.7883784393000002e+04  1.1447352260000000e+04
1.9262879880000000e+09  1.0525104756464101e+11 -2.2062440044714001e+10 -1.6586369232532000e+10  8.4741310340000000e+03  3.1002100925999999e+04  1.3414401949999999e+04
1.9271519880000000e+09  1.0845330366103999e+11  5.2246455837939997e+09 -4.5101525765450001e+09 -1.1152108450000001e+03  3.1756876397000000e+04  1.4360699146000001e+04
1.9280159880000000e+09  1.0333676892163800e+11  3.2109477238351002e+10  7.9113343764759998e+09 -1.0659773621000000e+04  3.0073392553999998e+04  1.4206981150000000e+04
1.9288799880000000e+09  9.0256874566358002e+10  5.6517996853536003e+10  1.9722308779755001e+10 -1.9429209257999999e+04  2.6057511900000001e+04  1.2954679901000000e+04
1.9297439880000000e+09  7.0184877205731995e+10  7.6545772891022995e+10  3.0004357786488998e+10 -2.6737427081999998e+04  1.9994830832000000e+04  1.0688904924000000e+04
1.9306079880000000e+09  4.4646040922924004e+10  9.0608189822488998e+10  3.7947932472467003e+10 -3.1997070541000001e+04  1.2336507073000001e+04  7.5755121769999996e+03
1.9314719880000000e+09  1.5611721982337999e+10  9.7572116362393997e+10  4.2918423747641998e+10 -3.4770899058000003e+04  3.6704442749999998e+03  3.8513883360000000e+03
1.9323359880000000e+09 -1.4649622064308001e+10  9.6856358540634995e+10  4.4510790828496002e+10 -3.4814494241000000e+04 -5.3219502320000001e+03 -1.9230542000000000e+02
1.9331999880000000e+09 -4.3752408423488998e+10  8.8489290932852005e+10  4.2586880802977997e+10 -3.2104306393999999e+04 -1.3921034452000000e+04 -4.2332297040000003e+03
END Ephemeris